     3.03           N: GNSS NAV DATA    M: Mixed            RINEX VERSION / TYPE
sbp2rinex v2.2 (RTKL                    20210504 171524 UTC PGM / RUN BY / DATE 
log: 2020-05-21-US-MTV-1.sbp                                COMMENT             
format: Swift Navigation SBP, option: CONVBASE,EPHALL,OBSALLCOMMENT             
                                                            END OF HEADER       
C28 2020  5 21 18  0  0 -.227977870964E-03  .659383658785E-11  .000000000000E+00
      .100000000000E+01 -.150578125000E+03  .369586823346E-08 -.236800314884E+01
     -.730389729142E-05  .813038786873E-04  .812904909253E-05  .528262362289E+04
      .410400000000E+06  .293366611004E-07  .250246053467E+01 -.544823706150E-07
      .966101584729E+00  .195687500000E+03 -.308385692533E+01 -.681849830354E-08
     -.381444460121E-09  .120000000000E+02  .750000000000E+03  .100000000000E+01
      .200000000000E+01  .000000000000E+00 -.370000008409E-08 -.370000008409E-08
      .412213000000E+06  .100000000000E+01
E25 2020  5 21 18 10  0 -.510939920787E-03 -.611066752754E-12  .000000000000E+00
      .450000000000E+02  .166750000000E+03  .292655047400E-08 -.559810068874E+00
      .772252678871E-05  .808673212305E-04  .341795384884E-05  .544061795807E+04
      .411000000000E+06  .260770320892E-07  .827681506383E+00  .372529029846E-07
      .982597441676E+00  .281156250000E+03 -.227561929867E+01 -.565952145607E-08
      .457519057505E-09  .500000000000E+01  .210600000000E+04  .100000000000E+01
      .312000000000E+01  .000000000000E+00  .116415321827E-08  .139698386192E-08
      .412227000000E+06  .000000000000E+00
C11 2020  5 21 18  0  0 -.378848053515E-03 -.237703190464E-10  .406575814682E-19
      .140000000000E+02 -.133406250000E+03  .332085261256E-08 -.221403784843E+01
     -.650295987725E-05  .184604607057E-02  .831857323647E-05  .528260675430E+04
      .410400000000E+06  .190921127796E-07  .250342703783E+01  .828877091408E-07
      .990149137446E+00  .207406250000E+03 -.207937596128E+01 -.654848705649E-08
     -.279297348141E-09  .120000000000E+02  .750000000000E+03  .100000000000E+01
      .200000000000E+01  .000000000000E+00  .399999988687E-08  .109999997999E-08
      .412215000000E+06  .130000000000E+02
C13 2020  5 21 18  0  0  .448043690994E-03  .205044869972E-10  .000000000000E+00
      .100000000000E+01 -.252078125000E+03  .254653464482E-09 -.408755712122E+00
     -.875955447555E-05  .366700976156E-02  .239135697484E-04  .649363654137E+04
      .410400000000E+06  .800937414169E-07 -.304280176498E+01  .810250639915E-07
      .995624200521E+00 -.477031250000E+03 -.265573108504E+01 -.128326773897E-08
      .404302555110E-09  .120000000000E+02  .750000000000E+03  .100000000000E+01
      .200000000000E+01  .000000000000E+00 -.959999990613E-08  .239999997653E-08
      .412215000000E+06  .000000000000E+00
C20 2020  5 21 18  0  0 -.870529795066E-03  .100355279642E-10  .000000000000E+00
      .100000000000E+01  .113125000000E+02  .419624621907E-08 -.203582530992E+01
      .562053173780E-06  .975704751909E-03  .422494485974E-05  .528261243629E+04
      .410400000000E+06  .409781932831E-07 -.171079664194E+01  .302679836750E-07
      .962966290886E+00  .277781250000E+03 -.814569690554E+00 -.699064833142E-08
      .110718897601E-09  .120000000000E+02  .750000000000E+03  .100000000000E+01
      .200000000000E+01  .000000000000E+00  .231000001349E-07  .231000001349E-07
      .412215000000E+06  .100000000000E+01
C21 2020  5 21 18  0  0 -.428635510616E-03 -.466204852501E-10  .000000000000E+00
      .100000000000E+01  .868750000000E+01  .412410035676E-08  .206696640172E+01
      .453554093838E-06  .896493671462E-03  .405311584473E-05  .528261257172E+04
      .410400000000E+06 -.181607902050E-07 -.170888684334E+01  .293366611004E-07
      .962250609417E+00  .280296875000E+03 -.971882725377E+00 -.695350392706E-08
      .346443002170E-10  .120000000000E+02  .750000000000E+03  .100000000000E+01
      .200000000000E+01  .000000000000E+00  .145000003116E-07  .145000003116E-07
      .412215000000E+06  .100000000000E+01
C22 2020  5 21 18  0  0 -.801615184173E-03  .879829542555E-11  .000000000000E+00
      .100000000000E+01  .789062500000E+01  .413660087746E-08  .235544047734E+01
      .405590981245E-06  .756394467317E-03  .419979915023E-05  .528261240768E+04
      .410400000000E+06 -.651925802231E-08 -.170897381675E+01 -.353902578354E-07
      .962259367908E+00  .280953125000E+03 -.478914821593E+00 -.695600403120E-08
      .203579908492E-10  .120000000000E+02  .750000000000E+03  .100000000000E+01
      .200000000000E+01  .000000000000E+00  .160999995558E-07  .160999995558E-07
      .412215000000E+06  .100000000000E+01
C23 2020  5 21 18  0  0 -.870530144311E-03  .986588588603E-11  .000000000000E+00
      .100000000000E+01  .149968750000E+03  .378551482474E-08 -.929432527807E+00
      .745896250010E-05  .169253209606E-03  .895280390978E-05  .528263076210E+04
      .410400000000E+06 -.642612576485E-07  .399579674040E+00 -.260770320892E-07
      .953095074133E+00  .174953125000E+03 -.242502083887E+01 -.688421532663E-08
      .339657005220E-09  .120000000000E+02  .750000000000E+03  .100000000000E+01
      .200000000000E+01  .000000000000E+00  .253000003170E-07  .253000003170E-07
      .412215000000E+06  .100000000000E+01
C29 2020  5 21 18  0  0  .231603160501E-03  .515498754794E-11  .000000000000E+00
      .100000000000E+01 -.145468750000E+03  .383444543433E-08 -.272069347793E+01
     -.707432627678E-05  .269128009677E-03  .657234340906E-05  .528262095070E+04
      .410400000000E+06  .526197254658E-07  .246439489861E+01  .838190317154E-08
      .965291207111E+00  .232156250000E+03  .119340625123E+01 -.687492922554E-08
     -.288583449230E-09  .120000000000E+02  .750000000000E+03  .100000000000E+01
      .200000000000E+01  .000000000000E+00  .100000001335E-09  .100000001335E-09
      .412216000000E+06  .100000000000E+01
C30 2020  5 21 18  0  0  .320254359394E-03  .567546010188E-11  .000000000000E+00
      .100000000000E+01 -.155875000000E+03  .373515558422E-08 -.989633704593E+00
     -.762054696679E-05  .485179829411E-03  .685639679432E-05  .528262337494E+04
      .410400000000E+06  .884756445885E-08  .246494874477E+01  .232830643654E-08
      .965230520880E+00  .226593750000E+03  .262465585088E+00 -.684028492532E-08
     -.308584282345E-09  .120000000000E+02  .750000000000E+03  .100000000000E+01
      .200000000000E+01  .000000000000E+00 -.959999990613E-08 -.959999990613E-08
      .412216000000E+06  .100000000000E+01
C32 2020  5 21 18  0  0 -.889359740540E-03  .660893562099E-11  .000000000000E+00
      .100000000000E+01  .678125000000E+01  .415660171057E-08 -.874518591507E+00
      .423751771450E-06  .685714650899E-03  .423518940806E-05  .528260783386E+04
      .410400000000E+06 -.759027898312E-07 -.171626048882E+01  .745058059692E-07
      .961614082058E+00  .277343750000E+03 -.117305933998E+01 -.691671668044E-08
      .842892252703E-10  .120000000000E+02  .750000000000E+03  .100000000000E+01
      .200000000000E+01  .000000000000E+00 -.909999986476E-08 -.909999986476E-08
      .412216000000E+06  .100000000000E+01
C34 2020  5 21 18  0  0 -.739382696338E-03 -.340829586776E-10  .000000000000E+00
      .100000000000E+01 -.132562500000E+03  .383051669925E-08  .195822688019E+01
     -.655930489302E-05  .574294244871E-03  .769924372435E-05  .528262226295E+04
      .410400000000E+06 -.535510480404E-07  .246844314989E+01  .363215804100E-07
      .963336849498E+00  .206812500000E+03  .436229221487E+00 -.680171189003E-08
     -.280725979078E-09  .120000000000E+02  .750000000000E+03  .100000000000E+01
      .200000000000E+01  .000000000000E+00 -.590000004408E-08 -.590000004408E-08
      .412216000000E+06  .100000000000E+01
C35 2020  5 21 18  0  0 -.834130682051E-03  .180087056378E-10  .000000000000E+00
      .100000000000E+01 -.139968750000E+03  .375837083695E-08 -.245704778462E+01
     -.692764297128E-05  .715094269253E-03  .696396455169E-05  .528262207985E+04
      .410400000000E+06 -.139698386192E-08  .246829876280E+01 -.991858541965E-07
      .963406855980E+00  .218937500000E+03  .154168060850E+00 -.687135764820E-08
     -.317870383435E-09  .120000000000E+02  .750000000000E+03  .100000000000E+01
      .200000000000E+01  .000000000000E+00 -.229999996826E-08 -.229999996826E-08
      .412216000000E+06  .100000000000E+01
C36 2020  5 21 18  0  0 -.832996796817E-03 -.517719200843E-11  .000000000000E+00
      .100000000000E+01  .126390625000E+03  .376551399163E-08  .239534586308E+01
      .625243410468E-05  .727643375285E-03  .951904803514E-05  .528262936401E+04
      .410400000000E+06  .153668224812E-07  .396622903016E+00 -.270083546638E-07
      .954481414302E+00  .167750000000E+03 -.182269643225E+01 -.674885254537E-08
      .276082928534E-09  .120000000000E+02  .750000000000E+03  .100000000000E+01
      .200000000000E+01  .000000000000E+00 -.181999997295E-07 -.181999997295E-07
      .412216000000E+06  .100000000000E+01
E 1 2020  5 21 18 10  0 -.861248641741E-03 -.790123522165E-11  .000000000000E+00
      .450000000000E+02  .165375000000E+03  .288226291496E-08 -.252657294586E+01
      .786781311035E-05  .751022016630E-04  .461004674435E-05  .544060858154E+04
      .411000000000E+06 -.260770320892E-07  .830438043421E+00 -.186264514923E-07
      .983022147275E+00  .252312500000E+03  .205264001864E+01 -.562487715585E-08
      .477162732886E-09  .500000000000E+01  .210600000000E+04  .100000000000E+01
      .312000000000E+01  .000000000000E+00 -.186264514923E-08 -.209547579288E-08
      .412230000000E+06  .000000000000E+00
